BEIDOU 3 (C01)          
1 36287U 10001A   20264.49774825 -.00000295  00000-0  00000-0 0  9995
2 36287   1.5227  32.3168 0005443 120.3164 166.8814  1.00271044 39163
BEIDOU 5 (C06)          
1 36828U 10036A   20264.41103572 -.00000152  00000-0  10000-3 0  9997
2 36828  54.1673 182.1054 0100605 234.9388 209.5133  1.00287214 37205
BEIDOU 6 (C04)          
1 37210U 10057A   20264.63381549 -.00000128  00000-0  00000-0 0  9991
2 37210   0.9724  55.6329 0005920 128.3268 204.1180  1.00272548 36276
BEIDOU 7 (C07)          
1 37256U 10068A   20264.14719365 -.00000200  00000-0  00000-0 0  9991
2 37256  51.3228 297.2116 0082533 214.5002  20.0776  1.00282206 35785
BEIDOU 8 (C08)          
1 37384U 11013A   20264.31451762 -.00000178  00000-0  10000-3 0  9995
2 37384  59.4035  60.6339 0050986 200.9922 330.0915  1.00279867 34662
BEIDOU 9 (C09)          
1 37763U 11038A   20264.31286600 -.00000101  00000-0  10000-3 0  9996
2 37763  54.4503 184.5028 0073394 225.1242 158.7579  1.00274730 33632
BEIDOU 10 (C10)         
1 37948U 11073A   20264.61826096 -.00000145  00000-0  10000-3 0  9990
2 37948  51.4170 296.8071 0071896 215.4074 166.4826  1.00274580 32395
BEIDOU 11 (C05)         
1 38091U 12008A   20264.54031852  .00000043  00000-0  00000-0 0  9991
2 38091   1.6736  69.0917 0002395 217.1984 326.7920  1.00269479 31460
BEIDOU 12 (C11)         
1 38250U 12018A   20264.46423153 -.00000087  00000-0  10000-3 0  9992
2 38250  56.7467  14.5317 0022325 238.6137 119.5524  1.86234427 57253
BEIDOU 13 (C12)         
1 38251U 12018B   20264.40080922 -.00000087  00000-0  00000+0 0  9995
2 38251  56.6736  13.9019 0013579 237.6357 123.0572  1.86232812 57268
BEIDOU 15 (C14)         
1 38775U 12050B   20264.56584507  .00000015  00000-0  00000-0 0  9998
2 38775  55.0926 133.0869 0014239 323.3253 344.7334  1.86232471 54639
BEIDOU 16 (C02)         
1 38953U 12059A   20264.61233020 -.00000191  00000-0  00000-0 0  9998
2 38953   1.3237  84.2208 0006315 259.6562 320.5875  1.00272934 29032
BEIDOU 17 (C31)         
1 40549U 15019A   20264.61503450 -.00000175  00000-0  00000-0 0  9990
2 40549  52.9144 320.1075 0040695 191.6771 166.3449  1.00266547 20065
BEIDOU 18 (C57)         
1 40748U 15037A   20264.41560476 -.00000089  00000-0  00000-0 0  9994
2 40748  55.9381  13.1493 0001558  35.0905 245.3801  1.86232187 35085
BEIDOU 19 (C58)         
1 40749U 15037B   20264.33139582 -.00000089  00000-0  00000+0 0  9995
2 40749  55.9412  13.1396 0002650 292.5469  68.5419  1.86232336 35088
BEIDOU 20 (C18)         
1 40938U 15053A   20264.66255214 -.00000109  00000-0  00000-0 0  9994
2 40938  52.4765 283.1396 0048270 192.2287 215.7994  1.00295769 18352
BEIDOU IGSO-6 (C13)     
1 41434U 16021A   20264.31708127 -.00000140  00000-0  00000-0 0  9995
2 41434  57.1775  59.5021 0040943 203.1932 306.4456  1.00281169 16476
BEIDOU-2 G7 (C03)       
1 41586U 16037A   20264.43953486 -.00000369  00000-0  00000+0 0  9995
2 41586   1.6837  66.8220 0007685   3.8305 197.9073  1.00269359 15760
BEIDOU-3 M1 (C19)       
1 43001U 17069A   20264.68243729  .00000014  00000-0  00000+0 0  9990
2 43001  55.2454 132.9979 0008753 294.5941 248.3325  1.86231985 19574
BEIDOU-3 M2 (C20)       
1 43002U 17069B   20264.22394796  .00000020  00000-0  00000-0 0  9990
2 43002  55.2464 133.0489 0008092 319.2084 320.0953  1.86231590 19558
BEIDOU-3 M3 (C27)       
1 43107U 18003A   20264.05756156 -.00000088  00000-0  00000-0 0  9993
2 43107  55.3757  14.3644 0003957  55.9715 277.6526  1.86232729 18315
BEIDOU-3 M4 (C28)       
1 43108U 18003B   20264.64996613 -.00000090  00000-0  00000-0 0  9996
2 43108  55.3677  14.3354 0003692 222.9805 192.9788  1.86232814 18333
BEIDOU-3 M5 (C21)       
1 43207U 18018A   20263.94028441  .00000024  00000-0  00000+0 0  9994
2 43207  55.2052 133.1586 0005962 349.8929  10.1958  1.86231616 17703
BEIDOU-3 M6 (C22)       
1 43208U 18018B   20264.00705220  .00000023  00000-0  00000-0 0  9990
2 43208  55.2047 133.1613 0006692 310.4228  49.6192  1.86231522 17709
BEIDOU-3 M7 (C29)       
1 43245U 18029A   20264.19928610 -.00000090  00000-0  00000-0 0  9998
2 43245  55.3193  12.1642 0000929 177.2216 161.4776  1.86232892 16851
BEIDOU-3 M8 (C30)       
1 43246U 18029B   20264.21298372 -.00000090  00000-0  10000-3 0  9991
2 43246  55.3157  12.1954 0002939 341.7982  52.0292  1.86233142 16856
BEIDOU IGSO-7 (C16)     
1 43539U 18057A   20264.58832133 -.00000145  00000-0  00000-0 0  9993
2 43539  55.0497 181.3941 0032215 217.7611 284.8113  1.00296673  8145
BEIDOU-3 M9 (C23)       
1 43581U 18062A   20264.52447218  .00000031  00000-0  00000-0 0  9999
2 43581  54.5243 253.8668 0006543 264.0259 188.1970  1.86231937 14605
BEIDOU-3 M10 (C24)      
1 43582U 18062B   20263.47705466  .00000027  00000-0  00000-0 0  9990
2 43582  54.5234 253.8919 0005314 316.8156 244.1678  1.86232260 14587
BEIDOU-3 M11 (C25)      
1 43602U 18067A   20264.45293902  .00000032  00000-0  00000-0 0  9990
2 43602  54.5942 252.4200 0006489 341.6530 196.4294  1.86231652 14093
BEIDOU-3 M12 (C26)      
1 43603U 18067B   20264.64331825  .00000033  00000-0  00000-0 0  9990
2 43603  54.5922 252.3803 0004353 321.9822 254.2607  1.86231622 14114
BEIDOU-3 M13 (C32)      
1 43622U 18072A   20264.54812455  .00000015  00000-0  00000-0 0  9999
2 43622  55.1701 132.7174 0005556 294.4505 248.4092  1.86232052 13623
BEIDOU-3 M14 (C33)      
1 43623U 18072B   20264.02284265  .00000022  00000-0  00000+0 0  9992
2 43623  55.1721 132.7262 0004604 327.2108 313.6965  1.86232112 13611
BEIDOU-3 M15 (C34)      
1 43647U 18078A   20264.30321465 -.00000090  00000-0  10000-3 0  9990
2 43647  55.2112  12.3754 0005168 345.8841  18.1364  1.86232542 13142
BEIDOU-3 M16 (C35)      
1 43648U 18078B   20264.53975174 -.00000091  00000-0  10000-3 0  9999
2 43648  55.2057  12.3745 0003134 359.6926  71.8415  1.86232048 13154
BEIDOU-3 G1 (C59)       
1 43683U 18085A   20264.33635362 -.00000296  00000-0  00000-0 0  9999
2 43683   1.5701 250.9830 0004683 350.6011  19.1655  1.00267888  7053
BEIDOU-3 M17 (C36)      
1 43706U 18093A   20264.27406412  .00000031  00000-0  00000-0 0  9995
2 43706  54.6042 253.7141 0012140 264.6558 244.6511  1.86231907 12496
BEIDOU-3 M18 (C37)      
1 43707U 18093B   20264.65012999  .00000032  00000-0  00000-0 0  9992
2 43707  54.6049 253.6922 0010556 282.8375 209.2092  1.86232159 12501
BEIDOU-3 IGSO-1 (C38)   
1 44204U 19023A   20264.41416959 -.00000197  00000-0  10000-3 0  9994
2 44204  55.6324  59.8685 0018749 178.9768  23.1126  1.00265625  5341
BEIDOU-2 G8             
1 44231U 19027A   20264.49803987 -.00000263  00000-0  00000-0 0  9997
2 44231   0.7761 300.5476 0007694 265.6582 117.3625  1.00276224  5073
BEIDOU-3 IGSO-2 (C39)   
1 44337U 19035A   20264.54602984 -.00000133  00000-0  00000-0 0  9999
2 44337  55.0748 177.4392 0014108 185.3918 300.7703  1.00262256  4686
BEIDOU-3 M23 (C45)      
1 44542U 19061A   20263.70486391  .00000029  00000-0  10000-3 0  9992
2 44542  54.8284 253.7515 0009478 308.9094 223.2177  1.86231431  6741
BEIDOU-3 M24 (C46)      
1 44543U 19061B   20264.37798512  .00000032  00000-0  10000-3 0  9992
2 44543  54.8263 253.6991 0007193 294.7783 239.1569  1.86231826  6766
BEIDOU-3 IGSO-3         
1 44709U 19073A   20264.54498406 -.00000148  00000-0  10000-3 0  9996
2 44709  58.2542 302.9313 0025379 191.7209 166.5408  1.00257109  3433
BEIDOU-3 M21            
1 44793U 19078A   20264.58172311 -.00000092  00000-0  10000-3 0  9990
2 44793  55.0599  12.4629 0005164 354.0925 151.4194  1.86232060  5626
BEIDOU-3 M22            
1 44794U 19078B   20263.47004613 -.00000087  00000-0  10000-3 0  9991
2 44794  55.0363  12.5071 0003057 352.3254  38.3340  1.86233150  5608
BEIDOU-3 M19            
1 44864U 19090A   20264.15797428  .00000020  00000-0  00000-0 0  9994
2 44864  55.1056 132.9755 0014387 265.5356  61.0194  1.86232045  5194
BEIDOU-3 M20            
1 44865U 19090B   20264.56554208  .00000015  00000-0  10000-3 0  9995
2 44865  55.1078 132.9905 0013410 282.5639  47.1858  1.86232063  5186
BEIDOU-3 G2             
1 45344U 20017A   20264.46804198 -.00000157  00000-0  00000+0 0  9997
2 45344   2.8151 329.9918 0002250 189.7823  88.5517  1.00270598  2252
BEIDOU-3 G3             
1 45807U 20040A   20264.47406126 -.00000371  00000-0  00000-0 0  9996
2 45807   2.9074 298.6394 0007174 349.4246 352.8894  1.00267349  1057
